NORAD_CAT_ID,OBJECT_NAME,OBJECT_TYPE,EPOCH,MEAN_MOTION,ECCENTRICITY,INCLINATION,RA_OF_ASC_NODE,ARG_OF_PERICENTER,MEAN_ANOMALY,BSTAR,MEAN_MOTION_DOT,MEAN_MOTION_DDOT,TLE_LINE0,TLE_LINE1,TLE_LINE2,SEMIMAJOR_AXIS,PERIOD,APOGEE,PERIGEE,DECAYED
54054.0,STARLINK-5163,PAYLOAD,2024-07-01 09:38:44,15.08830996,0.000122,53.2151,230.8736,90.0061,270.1071,3.1335e-05,2.11e-06,0.0,0 STARLINK-5163,1 54054U 22136D   24183.40190282  .00000211  00000-0  31335-4 0  9999,2 54054  53.2151 230.8736 0001220  90.0061 270.1071 15.08830996 93804,6917.908,95.438,540.617,538.929,0.0
54054.0,STARLINK-5163,PAYLOAD,2024-07-02 12:40:17,15.08838981,0.0001364,53.2153,225.8173,83.9713,276.1435,6.1956e-05,6.98e-06,0.0,0 STARLINK-5163,1 54054U 22136D   24184.52797887  .00000698  00000-0  61956-4 0  9998,2 54054  53.2153 225.8173 0001364  83.9713 276.1435 15.08838981 94453,6917.884,95.438,540.692,538.805,0.0
54054.0,STARLINK-5163,PAYLOAD,2024-07-03 09:20:18,15.08833462,0.0001346,53.2157,221.9505,87.3221,272.7925,4.2987e-05,3.96e-06,0.0,0 STARLINK-5163,1 54054U 22136D   24185.38910352  .00000396  00000-0  42987-4 0  9995,2 54054  53.2157 221.9505 0001346  87.3221 272.7925 15.08833462 94584,6917.9,95.438,540.697,538.834,0.0
54054.0,STARLINK-5163,PAYLOAD,2024-07-03 18:52:36,15.08840704,0.0001266,53.2159,220.1654,84.4273,275.6863,4.9022e-05,4.92e-06,0.0,0 STARLINK-5163,1 54054U 22136D   24185.78653872  .00000492  00000-0  49022-4 0  9994,2 54054  53.2159 220.1654 0001266  84.4273 275.6863 15.08840704 94645,6917.878,95.438,540.619,538.867,0.0
54054.0,STARLINK-5163,PAYLOAD,2024-07-04 02:49:33,15.08832809,0.0001213,53.2166,218.6812,83.9319,276.1811,2.5287e-06,-2.48e-06,0.0,0 STARLINK-5163,1 54054U 22136D   24186.11774592 -.00000248  00000-0  25287-5 0  9993,2 54054  53.2166 218.6812 0001213  83.9319 276.1811 15.08832809 94699,6917.902,95.438,540.607,538.928,0.0
54054.0,STARLINK-5163,PAYLOAD,2024-07-04 09:11:05,15.08834431,0.0001208,53.2165,217.492,82.8269,277.2861,1.6795e-05,-2.1e-07,0.0,0 STARLINK-5163,1 54054U 22136D   24186.38270523 -.00000021  00000-0  16795-4 0  9999,2 54054  53.2165 217.4920 0001208  82.8269 277.2861 15.08834431 94253,6917.897,95.438,540.598,538.927,0.0
54054.0,STARLINK-5163,PAYLOAD,2024-07-04 18:43:24,15.08839626,0.000131,53.217,215.7077,87.8292,272.2851,2.9224e-05,1.77e-06,0.0,0 STARLINK-5163,1 54054U 22136D   24186.78014174  .00000177  00000-0  29224-4 0  9993,2 54054  53.2170 215.7077 0001310  87.8292 272.2851 15.08839626 94792,6917.882,95.438,540.653,538.84,0.0
54054.0,STARLINK-5163,PAYLOAD,2024-07-05 09:01:52,15.08838064,0.0001393,53.2171,213.0316,92.2357,267.8795,7.4411e-05,8.96e-06,0.0,0 STARLINK-5163,1 54054U 22136D   24187.37630211  .00000896  00000-0  74411-4 0  9991,2 54054  53.2171 213.0316 0001393  92.2357 267.8795 15.08838064 94403,6917.886,95.438,540.715,538.788,0.0
54054.0,STARLINK-5163,PAYLOAD,2024-07-05 18:34:11,15.08841149,0.00014,53.2173,211.2477,92.2654,267.8499,4.601e-05,4.44e-06,0.0,0 STARLINK-5163,1 54054U 22136D   24187.77374117  .00000444  00000-0  46010-4 0  9998,2 54054  53.2173 211.2477 0001400  92.2654 267.8499 15.08841149 94467,6917.877,95.437,540.71,538.773,0.0
54054.0,STARLINK-5163,PAYLOAD,2024-07-06 05:41:53,15.08833149,0.0001408,53.2173,209.1659,94.2632,265.8521,1.9347e-05,2e-07,0.0,0 STARLINK-5163,1 54054U 22136D   24188.23742779  .00000020  00000-0  19347-4 0  9996,2 54054  53.2173 209.1659 0001408  94.2632 265.8521 15.08833149 95018,6917.901,95.438,540.74,538.792,0.0
54054.0,STARLINK-5163,PAYLOAD,2024-07-06 10:28:03,15.08835457,0.0001382,53.217,208.2735,91.599,268.516,2.9416e-05,1.8e-06,0.0,0 STARLINK-5163,1 54054U 22136D   24188.43614658  .00000180  00000-0  29416-4 0  9997,2 54054  53.2170 208.2735 0001382  91.5990 268.5160 15.08835457 94560,6917.894,95.438,540.715,538.803,0.0
54054.0,STARLINK-5163,PAYLOAD,2024-07-06 18:24:58,15.088383,0.0001386,53.217,206.7866,89.9189,270.1962,1.8157e-05,1e-08,0.0,0 STARLINK-5163,1 54054U 22136D   24188.76734515  .00000001  00000-0  18157-4 0  9990,2 54054  53.2170 206.7866 0001386  89.9189 270.1962 15.08838300 94618,6917.886,95.438,540.709,538.792,0.0
54054.0,STARLINK-5163,PAYLOAD,2024-07-07 08:43:26,15.08839427,0.000138,53.2168,204.11,89.5631,270.5519,-8.4631e-08,-2.89e-06,0.0,0 STARLINK-5163,1 54054U 22136D   24189.36350547 -.00000289  00000-0 -84631-7 0  9999,2 54054  53.2168 204.1100 0001380  89.5631 270.5519 15.08839427 95186,6917.882,95.438,540.702,538.792,0.0
54054.0,STARLINK-5163,PAYLOAD,2024-07-08 06:58:50,15.08841837,0.0001277,53.2162,199.9461,90.7987,269.3151,6.9971e-05,8.26e-06,0.0,0 STARLINK-5163,1 54054U 22136D   24190.29086067  .00000826  00000-0  69971-4 0  9998,2 54054  53.2162 199.9461 0001277  90.7987 269.3151 15.08841837 94842,6917.875,95.437,540.623,538.856,0.0
54054.0,STARLINK-5163,PAYLOAD,2024-07-08 21:17:18,15.08841412,0.0001341,53.2163,197.2707,90.8466,269.2679,4.836e-05,4.82e-06,0.0,0 STARLINK-5163,1 54054U 22136D   24190.88702116  .00000482  00000-0  48360-4 0  9990,2 54054  53.2163 197.2707 0001341  90.8466 269.2679 15.08841412 95419,6917.876,95.437,540.669,538.813,0.0
54054.0,STARLINK-5163,PAYLOAD,2024-07-09 10:00:23,15.08839241,0.0001335,53.2161,194.8908,94.3903,265.7241,1.9435e-05,2.1e-07,0.0,0 STARLINK-5163,1 54054U 22136D   24191.41694294  .00000021  00000-0  19435-4 0  9997,2 54054  53.2161 194.8908 0001335  94.3903 265.7241 15.08839241 95010,6917.883,95.438,540.671,538.824,0.0
54054.0,STARLINK-5163,PAYLOAD,2024-07-10 05:05:01,15.08839208,0.000134,53.216,191.3219,95.73,264.3845,-1.4262e-05,-5.15e-06,0.0,0 STARLINK-5163,1 54054U 22136D   24192.21182409 -.00000515  00000-0 -14262-4 0  9999,2 54054  53.2160 191.3219 0001340  95.7300 264.3845 15.08839208 95612,6917.883,95.438,540.675,538.821,0.0
54054.0,STARLINK-5163,PAYLOAD,2024-07-10 09:51:11,15.08838313,0.0001335,53.216,190.4301,94.9234,265.191,-1.9786e-05,-6.03e-06,0.0,0 STARLINK-5163,1 54054U 22136D   24192.41054488 -.00000603  00000-0 -19786-4 0  9990,2 54054  53.2160 190.4301 0001335  94.9234 265.1910 15.08838313 95163,6917.886,95.438,540.674,538.827,0.0
54054.0,STARLINK-5163,PAYLOAD,2024-07-11 06:31:11,15.088371,0.0001301,53.2159,186.5642,94.4293,265.6848,3.6951e-05,3e-06,0.0,0 STARLINK-5163,1 54054U 22136D   24193.27166440  .00000300  00000-0  36951-4 0  9992,2 54054  53.2159 186.5642 0001301  94.4293 265.6848 15.08837100 95290,6917.889,95.438,540.654,538.854,0.0
54054.0,STARLINK-5163,PAYLOAD,2024-07-12 06:21:59,15.08835172,0.0001289,53.2162,182.1042,93.2415,266.8724,2.5333e-05,1.15e-06,0.0,0 STARLINK-5163,1 54054U 22136D   24194.26526839  .00000115  00000-0  25333-4 0  9990,2 54054  53.2162 182.1042 0001289  93.2415 266.8724 15.08835172 95448,6917.895,95.438,540.652,538.868,0.0
54054.0,STARLINK-5163,PAYLOAD,2024-07-12 15:54:17,15.08838389,0.000131,53.2165,180.3199,93.1498,266.9644,5.3878e-05,5.7e-06,0.0,0 STARLINK-5163,1 54054U 22136D   24194.66270639  .00000570  00000-0  53878-4 0  9998,2 54054  53.2165 180.3199 0001310  93.1498 266.9644 15.08838389 95983,6917.885,95.438,540.657,538.844,0.0
54054.0,STARLINK-5163,PAYLOAD,2024-07-13 06:12:46,15.08837603,0.0001462,53.2175,177.645,99.457,260.6588,2.9935e-05,1.88e-06,0.0,0 STARLINK-5163,1 54054U 22136D   24195.25886936  .00000188  00000-0  29935-4 0  9999,2 54054  53.2175 177.6450 0001462  99.4570 260.6588 15.08837603 95594,6917.888,95.438,540.764,538.741,0.0
54054.0,STARLINK-5163,PAYLOAD,2024-07-13 22:06:37,15.08832741,0.0001713,53.2186,174.6722,98.8579,261.2607,0.00014868,2.079e-05,0.0,0 STARLINK-5163,1 54054U 22136D   24195.92126876  .00002079  00000-0  14868-3 0  9992,2 54054  53.2186 174.6722 0001713  98.8579 261.2607 15.08832741 95694,6917.903,95.438,540.953,538.583,0.0
54054.0,STARLINK-5163,PAYLOAD,2024-07-14 04:28:10,15.08831469,0.0001539,53.2184,173.4824,94.0238,266.093,0.00010138,1.325e-05,0.0,0 STARLINK-5163,1 54054U 22136D   24196.18623260  .00001325  00000-0  10138-3 0  9999,2 54054  53.2184 173.4824 0001539  94.0238 266.0930 15.08831469 96215,6917.906,95.438,540.836,538.707,0.0
54054.0,STARLINK-5163,PAYLOAD,2024-07-14 07:38:56,15.08839454,0.0001495,53.2177,172.887,89.7276,270.3888,7.259e-05,8.67e-06,0.0,0 STARLINK-5163,1 54054U 22136D   24196.31870886  .00000867  00000-0  72590-4 0  9993,2 54054  53.2177 172.8870 0001495  89.7276 270.3888 15.08839454 95755,6917.882,95.438,540.781,538.713,0.0
54054.0,STARLINK-5163,PAYLOAD,2024-07-14 15:35:51,15.08847977,0.0001447,53.217,171.3983,80.0375,280.0781,9.9223e-05,1.292e-05,0.0,0 STARLINK-5163,1 54054U 22136D   24196.64990197  .00001292  00000-0  99223-4 0  9992,2 54054  53.2170 171.3983 0001447  80.0375 280.0781 15.08847977 96286,6917.856,95.437,540.722,538.72,0.0
54054.0,STARLINK-5163,PAYLOAD,2024-07-15 04:18:57,15.08837588,0.0001239,53.2155,169.0187,81.8931,278.2201,5.0201e-06,-2.08e-06,0.0,0 STARLINK-5163,1 54054U 22136D   24197.17983164 -.00000208  00000-0  50201-5 0  9998,2 54054  53.2155 169.0187 0001239  81.8931 278.2201 15.08837588 96367,6917.888,95.438,540.61,538.896,0.0
54054.0,STARLINK-5163,PAYLOAD,2024-07-15 05:54:20,15.08839926,0.0001419,53.2169,168.7233,82.8467,277.2687,2.6868e-05,1.4e-06,0.0,0 STARLINK-5163,1 54054U 22136D   24197.24607025  .00000140  00000-0  26868-4 0  9990,2 54054  53.2169 168.7233 0001419  82.8467 277.2687 15.08839926 95897,6917.881,95.438,540.727,538.764,0.0
54054.0,STARLINK-5163,PAYLOAD,2024-07-15 15:26:38,15.08846294,0.0001428,53.2171,166.9396,82.9045,277.2109,5.2799e-05,5.53e-06,0.0,0 STARLINK-5163,1 54054U 22136D   24197.64350498  .00000553  00000-0  52799-4 0  9993,2 54054  53.2171 166.9396 0001428  82.9045 277.2109 15.08846294 96439,6917.861,95.437,540.714,538.738,0.0
54054.0,STARLINK-5163,PAYLOAD,2024-07-16 04:09:44,15.08838576,0.000134,53.2165,164.5572,104.1416,255.9725,-1.4121e-05,-5.13e-06,0.0,0 STARLINK-5163,1 54054U 22136D   24198.17343103 -.00000513  00000-0 -14121-4 0  9992,2 54054  53.2165 164.5572 0001340 104.1416 255.9725 15.08838576 96514,6917.885,95.438,540.677,538.823,0.0
